SENTINEL-6              
1 46984U 20086A   24032.52067893 -.00000042  00000+0  83691-4 0  9995
2 46984  66.0417 135.1288 0007750 270.2292  89.7835 12.80930384149325
